ELECTRON KICK STAGE R/B 
1 51848U 22020B   24125.52300435  .00360237  00000+0  14105-2 0  9991
2 51848  96.9790 149.6961 0010190  78.0774 282.1640 15.86031488121841
